{
  "type": "FeatureCollection",
  "features": [
    {
      "type": "Feature",
      "properties": {
        "norad_id": 54741,
        "name": "GALAXY 35 (G-35)",
        "group": "intelsat",
        "lat": -0.0029391443386029663,
        "lon": -60.59129097297299,
        "alt_km": 35777.458573629054,
        "timestamp": "2025-12-13T20:38:50.663290+00:00",
        "meta_object_name": "GALAXY 35 (G-35)",
        "meta_object_id": "2022-170A",
        "meta_epoch": "2025-12-13T04:26:46.019904",
        "meta_mean_motion": 1.00271192,
        "meta_eccentricity": 0.00024437,
        "meta_inclination": 0.015,
        "meta_ra_of_asc_node": 285.7451,
        "meta_arg_of_pericenter": 342.2776,
        "meta_mean_anomaly": 147.6965,
        "meta_ephemeris_type": 0,
        "meta_classification_type": "U",
        "meta_norad_cat_id": 54741,
        "meta_element_set_no": 999,
        "meta_rev_at_epoch": 1102,
        "meta_bstar": 0,
        "meta_mean_motion_dot": -1.49e-06,
        "meta_mean_motion_ddot": 0,
        "tle_line1": "1 54741U 22170A   25347.18525486 -.00000149  00000+0  00000+0 0  9996",
        "tle_line2": "2 54741   0.0150 285.7451 0002443 342.2776 147.6965  1.00271192 11020"
      },
      "geometry": {
        "type": "Point",
        "coordinates": [
          -60.59129097297299,
          -0.0029391443386029663
        ]
      }
    },
    {
      "type": "Feature",
      "properties": {
        "norad_id": 54742,
        "name": "GALAXY 36 (G-36)",
        "group": "intelsat",
        "lat": -0.018791784979203016,
        "lon": -56.5057146060103,
        "alt_km": 35784.498957766,
        "timestamp": "2025-12-13T20:38:50.663301+00:00",
        "meta_object_name": "GALAXY 36 (G-36)",
        "meta_object_id": "2022-170B",
        "meta_epoch": "2025-12-13T04:28:00.901056",
        "meta_mean_motion": 1.0027219,
        "meta_eccentricity": 3.598e-05,
        "meta_inclination": 0.0372,
        "meta_ra_of_asc_node": 135.2399,
        "meta_arg_of_pericenter": 165.2612,
        "meta_mean_anomaly": 119.6285,
        "meta_ephemeris_type": 0,
        "meta_classification_type": "U",
        "meta_norad_cat_id": 54742,
        "meta_element_set_no": 999,
        "meta_rev_at_epoch": 1090,
        "meta_bstar": 0,
        "meta_mean_motion_dot": -1.72e-06,
        "meta_mean_motion_ddot": 0,
        "tle_line1": "1 54742U 22170B   25347.18612154 -.00000172  00000+0  00000+0 0  9992",
        "tle_line2": "2 54742   0.0372 135.2399 0000359 165.2612 119.6285  1.00272190 10902"
      },
      "geometry": {
        "type": "Point",
        "coordinates": [
          -56.5057146060103,
          -0.018791784979203016
        ]
      }
    },
    {
      "type": "Feature",
      "properties": {
        "norad_id": 57493,
        "name": "GALAXY 37 (G-37)",
        "group": "intelsat",
        "lat": -0.02439034999024347,
        "lon": -94.5087060538297,
        "alt_km": 35777.04016318024,
        "timestamp": "2025-12-13T20:38:50.663313+00:00",
        "meta_object_name": "GALAXY 37 (G-37)",
        "meta_object_id": "2023-112A",
        "meta_epoch": "2025-12-13T05:27:57.429792",
        "meta_mean_motion": 1.00271962,
        "meta_eccentricity": 0.00021151,
        "meta_inclination": 0.016,
        "meta_ra_of_asc_node": 39.1656,
        "meta_arg_of_pericenter": 227.907,
        "meta_mean_anomaly": 130.0817,
        "meta_ephemeris_type": 0,
        "meta_classification_type": "U",
        "meta_norad_cat_id": 57493,
        "meta_element_set_no": 999,
        "meta_rev_at_epoch": 867,
        "meta_bstar": 0,
        "meta_mean_motion_dot": 6.2e-07,
        "meta_mean_motion_ddot": 0,
        "tle_line1": "1 57493U 23112A   25347.22774803  .00000062  00000+0  00000+0 0  9997",
        "tle_line2": "2 57493   0.0160  39.1656 0002115 227.9070 130.0817  1.00271962  8672"
      },
      "geometry": {
        "type": "Point",
        "coordinates": [
          -94.5087060538297,
          -0.02439034999024347
        ]
      }
    }
  ]
}